NORAD_CAT_ID,OBJECT_NAME,OBJECT_TYPE,EPOCH,MEAN_MOTION,ECCENTRICITY,INCLINATION,RA_OF_ASC_NODE,ARG_OF_PERICENTER,MEAN_ANOMALY,BSTAR,MEAN_MOTION_DOT,MEAN_MOTION_DDOT,TLE_LINE0,TLE_LINE1,TLE_LINE2,SEMIMAJOR_AXIS,PERIOD,APOGEE,PERIGEE,DECAYED
52860.0,STARLINK-4191,PAYLOAD,2024-06-18 19:14:12,15.08849708,0.0001225,53.2182,327.3106,74.5176,285.5951,0.00011205,1.496e-05,0.0,0 STARLINK-4191,1 52860U 22062AG  24170.80153892  .00001496  00000-0  11205-3 0  9995,2 52860  53.2182 327.3106 0001225  74.5176 285.5951 15.08849708111475,6917.851,95.437,540.563,538.868,0.0
52860.0,STARLINK-4191,PAYLOAD,2024-06-19 03:11:08,15.0883981,0.0001207,53.2185,325.8208,70.8561,289.2562,-2.2778e-06,-3.24e-06,0.0,0 STARLINK-4191,1 52860U 22062AG  24171.13274261 -.00000324  00000-0 -22778-5 0  9996,2 52860  53.2185 325.8208 0001207  70.8561 289.2562 15.08839810111529,6917.881,95.438,540.581,538.911,0.0
52860.0,STARLINK-4191,PAYLOAD,2024-06-19 11:08:05,15.088261,0.0001329,53.2181,324.3373,70.0032,290.1103,0.00015493,2.178e-05,0.0,0 STARLINK-4191,1 52860U 22062AG  24171.46395554  .00002178  00000-0  15493-3 0  9992,2 52860  53.2181 324.3373 0001329  70.0032 290.1103 15.08826100111577,6917.923,95.438,540.707,538.868,0.0
52860.0,STARLINK-4191,PAYLOAD,2024-06-19 14:18:51,15.08833804,0.0001388,53.2201,323.7437,83.1762,276.9388,0.00014371,2e-05,0.0,0 STARLINK-4191,1 52860U 22062AG  24171.59643172  .00002000  00000-0  14371-3 0  9996,2 52860  53.2201 323.7437 0001388  83.1762 276.9388 15.08833804111109,6917.899,95.438,540.725,538.804,0.0
52860.0,STARLINK-4191,PAYLOAD,2024-06-19 17:29:37,15.08836587,0.0001386,53.2195,323.1478,78.5507,281.5641,0.00017944,2.569e-05,0.0,0 STARLINK-4191,1 52860U 22062AG  24171.72891149  .00002569  00000-0  17944-3 0  9999,2 52860  53.2195 323.1478 0001386  78.5507 281.5641 15.08836587111614,6917.891,95.438,540.715,538.797,0.0
52860.0,STARLINK-4191,PAYLOAD,2024-06-20 14:09:38,15.08844904,0.0001315,53.2185,319.2828,83.0268,277.0874,0.00017241,2.457e-05,0.0,0 STARLINK-4191,1 52860U 22062AG  24172.59002867  .00002457  00000-0  17241-3 0  9992,2 52860  53.2185 319.2828 0001315  83.0268 277.0874 15.08844904111255,6917.865,95.437,540.64,538.821,0.0
52860.0,STARLINK-4191,PAYLOAD,2024-06-20 18:55:47,15.08849519,0.0001262,53.2176,318.389,75.8696,284.2436,0.00033917,5.115e-05,0.0,0 STARLINK-4191,1 52860U 22062AG  24172.78874733  .00005115  00000-0  33917-3 0  9994,2 52860  53.2176 318.3890 0001262  75.8696 284.2436 15.08849519111777,6917.851,95.437,540.589,538.843,0.0
52860.0,STARLINK-4191,PAYLOAD,2024-06-21 09:14:16,15.08840691,0.0001359,53.2177,315.7138,72.9815,287.1326,0.00018671,2.685e-05,0.0,0 STARLINK-4191,1 52860U 22062AG  24173.38491255  .00002685  00000-0  18671-3 0  9994,2 52860  53.2177 315.7138 0001359  72.9815 287.1326 15.08840691111864,6917.878,95.438,540.683,538.803,0.0
52860.0,STARLINK-4191,PAYLOAD,2024-06-21 14:00:25,15.08841368,0.000144,53.218,314.8215,71.346,288.7688,0.00022107,3.232e-05,0.0,0 STARLINK-4191,1 52860U 22062AG  24173.58363270  .00003232  00000-0  22107-3 0  9999,2 52860  53.2180 314.8215 0001440  71.3460 288.7688 15.08841368111404,6917.876,95.437,540.737,538.745,0.0
52860.0,STARLINK-4191,PAYLOAD,2024-06-21 17:11:12,15.08843133,0.0001381,53.2173,314.2261,71.931,288.1833,0.00028137,4.193e-05,0.0,0 STARLINK-4191,1 52860U 22062AG  24173.71611218  .00004193  00000-0  28137-3 0  9998,2 52860  53.2173 314.2261 0001381  71.9310 288.1833 15.08843133111425,6917.871,95.437,540.691,538.78,0.0
52860.0,STARLINK-4191,PAYLOAD,2024-06-22 13:51:13,15.08837111,0.0001608,53.2173,310.3613,67.38,292.7362,0.00020557,2.985e-05,0.0,0 STARLINK-4191,1 52860U 22062AG  24174.57723748  .00002985  00000-0  20557-3 0  9990,2 52860  53.2173 310.3613 0001608  67.3800 292.7362 15.08837111111559,6917.889,95.438,540.867,538.642,0.0
52860.0,STARLINK-4191,PAYLOAD,2024-06-22 15:26:36,15.088407,0.000158,53.2173,310.064,66.765,293.3509,0.00012708,1.735e-05,0.0,0 STARLINK-4191,1 52860U 22062AG  24174.64347655  .00001735  00000-0  12708-3 0  9998,2 52860  53.2173 310.0640 0001580  66.7650 293.3509 15.08840700112055,6917.878,95.438,540.836,538.65,0.0
52860.0,STARLINK-4191,PAYLOAD,2024-06-23 13:42:00,15.08845626,0.0001429,53.2178,305.9016,80.2433,279.8721,0.00027088,4.026e-05,0.0,0 STARLINK-4191,1 52860U 22062AG  24175.57083534  .00004026  00000-0  27088-3 0  9997,2 52860  53.2178 305.9016 0001429  80.2433 279.8721 15.08845626111700,6917.863,95.437,540.717,538.74,0.0
52860.0,STARLINK-4191,PAYLOAD,2024-06-24 13:32:46,15.08848547,0.0001353,53.2182,301.4427,85.5412,274.5735,0.00018808,2.707e-05,0.0,0 STARLINK-4191,1 52860U 22062AG  24176.56443104  .00002707  00000-0  18808-3 0  9994,2 52860  53.2182 301.4427 0001353  85.5412 274.5735 15.08848547112346,6917.854,95.437,540.655,538.783,0.0
52860.0,STARLINK-4191,PAYLOAD,2024-06-24 15:08:09,15.08850052,0.0001437,53.2184,301.1451,95.0226,265.093,0.00020274,2.941e-05,0.0,0 STARLINK-4191,1 52860U 22062AG  24176.63066955  .00002941  00000-0  20274-3 0  9997,2 52860  53.2184 301.1451 0001437  95.0226 265.0930 15.08850052111866,6917.85,95.437,540.709,538.721,0.0
52860.0,STARLINK-4191,PAYLOAD,2024-06-25 13:23:33,15.08841289,0.0001743,53.2193,296.9823,113.3519,246.7657,2.6836e-05,1.39e-06,0.0,0 STARLINK-4191,1 52860U 22062AG  24177.55803180  .00000139  00000-0  26836-4 0  9996,2 52860  53.2193 296.9823 0001743 113.3519 246.7657 15.08841289112493,6917.876,95.437,540.947,538.536,0.0
52860.0,STARLINK-4191,PAYLOAD,2024-06-25 16:34:19,15.08844435,0.0001629,53.2183,296.3842,116.1952,243.9208,4.6757e-05,4.56e-06,0.0,0 STARLINK-4191,1 52860U 22062AG  24177.69050925  .00000456  00000-0  46757-4 0  9998,2 52860  53.2183 296.3842 0001629 116.1952 243.9208 15.08844435112028,6917.867,95.437,540.859,538.605,0.0
52860.0,STARLINK-4191,PAYLOAD,2024-06-26 11:38:57,15.0884584,0.0001642,53.2183,292.813,113.1656,246.9509,-1.651e-05,-5.51e-06,0.0,0 STARLINK-4191,1 52860U 22062AG  24178.48538768 -.00000551  00000-0 -16510-4 0  9994,2 52860  53.2183 292.8130 0001642 113.1656 246.9509 15.08845840112143,6917.863,95.437,540.863,538.592,0.0
52860.0,STARLINK-4191,PAYLOAD,2024-06-27 13:05:08,15.08837215,0.0001398,53.2176,288.0591,95.271,264.8441,-2.9913e-06,-3.36e-06,0.0,0 STARLINK-4191,1 52860U 22062AG  24179.54523563 -.00000336  00000-0 -29913-5 0  9992,2 52860  53.2176 288.0591 0001398  95.2710 264.8441 15.08837215112794,6917.889,95.438,540.721,538.787,0.0
52860.0,STARLINK-4191,PAYLOAD,2024-06-27 14:40:31,15.08841512,0.0001347,53.2185,287.7613,91.5987,268.5159,5.619e-05,6.07e-06,0.0,0 STARLINK-4191,1 52860U 22062AG  24179.61147603  .00000607  00000-0  56190-4 0  9992,2 52860  53.2185 287.7613 0001347  91.5987 268.5159 15.08841512112314,6917.876,95.437,540.673,538.809,0.0
52860.0,STARLINK-4191,PAYLOAD,2024-06-28 00:12:50,15.08828,0.0001264,53.2171,285.9784,101.1226,258.9908,0.00022991,3.372e-05,0.0,0 STARLINK-4191,1 52860U 22062AG  24180.00892175  .00003372  00000-0  22991-3 0  9991,2 52860  53.2171 285.9784 0001264 101.1226 258.9908 15.08828000112862,6917.917,95.438,540.656,538.908,0.0
52860.0,STARLINK-4191,PAYLOAD,2024-06-28 12:55:55,15.08843841,0.0001293,53.216,283.5971,93.3258,266.7882,0.00018175,2.606e-05,0.0,0 STARLINK-4191,1 52860U 22062AG  24180.53883256  .00002606  00000-0  18175-3 0  9997,2 52860  53.2160 283.5971 0001293  93.3258 266.7882 15.08843841112948,6917.869,95.437,540.628,538.839,0.0
52860.0,STARLINK-4191,PAYLOAD,2024-06-28 14:31:17,15.08859092,0.0001256,53.2156,283.2998,106.364,253.7491,0.00043143,6.589e-05,0.0,0 STARLINK-4191,1 52860U 22062AG  24180.60506561  .00006589  00000-0  43143-3 0  9993,2 52860  53.2156 283.2998 0001256 106.3640 253.7491 15.08859092112462,6917.822,95.436,540.556,538.818,0.0
52860.0,STARLINK-4191,PAYLOAD,2024-06-29 00:03:37,15.0883455,0.0001642,53.2155,281.5156,75.8752,284.2422,4.0055e-07,-2.82e-06,0.0,0 STARLINK-4191,1 52860U 22062AG  24181.00252129 -.00000282  00000-0  40055-6 0  9993,2 52860  53.2155 281.5156 0001642  75.8752 284.2422 15.08834550113018,6917.897,95.438,540.898,538.626,0.0
52860.0,STARLINK-4191,PAYLOAD,2024-06-29 12:46:43,15.08820182,0.0001245,53.2149,279.1367,76.236,283.8771,-0.0001721,-3.024e-05,0.0,0 STARLINK-4191,1 52860U 22062AG  24181.53245233 -.00003024  00000-0 -17210-3 0  9991,2 52860  53.2149 279.1367 0001245  76.2360 283.8771 15.08820182113093,6917.941,95.439,540.667,538.945,0.0
52860.0,STARLINK-4191,PAYLOAD,2024-06-29 14:22:06,15.08831183,0.0001322,53.216,278.8396,71.846,288.2676,5.9308e-06,-1.94e-06,0.0,0 STARLINK-4191,1 52860U 22062AG  24181.59868816 -.00000194  00000-0  59308-5 0  9995,2 52860  53.2160 278.8396 0001322  71.8460 288.2676 15.08831183112615,6917.907,95.438,540.687,538.858,0.0
52860.0,STARLINK-4191,PAYLOAD,2024-06-29 15:57:29,15.08827354,0.000138,53.2163,278.5383,82.1839,277.931,-7.407e-05,-1.466e-05,0.0,0 STARLINK-4191,1 52860U 22062AG  24181.66493014 -.00001466  00000-0 -74070-4 0  9993,2 52860  53.2163 278.5383 0001380  82.1839 277.9310 15.08827354112626,6917.919,95.438,540.739,538.829,0.0
52860.0,STARLINK-4191,PAYLOAD,2024-06-29 23:54:25,15.08837312,0.0001395,53.2162,277.0558,76.1572,283.9575,0.00014323,1.992e-05,0.0,0 STARLINK-4191,1 52860U 22062AG  24181.99612817  .00001992  00000-0  14323-3 0  9999,2 52860  53.2162 277.0558 0001395  76.1572 283.9575 15.08837312113161,6917.889,95.438,540.719,538.789,0.0
52860.0,STARLINK-4191,PAYLOAD,2024-06-30 12:37:30,15.08856103,0.000153,53.2152,274.6772,67.5782,292.5372,0.0010759,0.00016884,0.0,0 STARLINK-4191,1 52860U 22062AG  24182.52604747  .00016884  00000-0  10759-2 0  9996,2 52860  53.2152 274.6772 0001530  67.5782 292.5372 15.08856103112753,6917.831,95.437,540.755,538.638,0.0
52860.0,STARLINK-4191,PAYLOAD,2024-07-01 12:28:17,15.08843322,0.0001398,53.215,270.2177,73.2483,286.8663,0.0002072,3.011e-05,0.0,0 STARLINK-4191,1 52860U 22062AG  24183.51964429  .00003011  00000-0  20720-3 0  9990,2 52860  53.2150 270.2177 0001398  73.2483 286.8663 15.08843322113395,6917.87,95.437,540.702,538.768,0.0
